{
  "type": "FeatureCollection",
  "name": "localcore-geo-subset-admin0",
  "features": [
    {
      "type": "Feature",
      "properties": { "iso_a2": "FR", "name": "France" },
      "geometry": {
        "type": "Polygon",
        "coordinates": [[
          [-4.8, 48.6], [-1.8, 49.7], [1.6, 50.9], [2.6, 51.1],
          [3.5, 50.2], [6.0, 49.5], [8.2, 48.9], [7.6, 47.5],
          [7.1, 43.7], [4.8, 43.3], [3.0, 42.4], [-1.8, 43.3],
          [-1.5, 46.0], [-4.5, 47.8], [-4.8, 48.6]
        ]]
      }
    },
    {
      "type": "Feature",
      "properties": { "iso_a2": "US", "name": "United States" },
      "geometry": {
        "type": "Polygon",
        "coordinates": [[
          [-124.7, 48.4], [-124.5, 40.0], [-117.1, 32.5], [-106.5, 31.8],
          [-97.4, 25.8], [-81.7, 24.5], [-80.0, 32.0], [-75.5, 35.2],
          [-70.0, 41.5], [-67.0, 44.8], [-71.0, 45.3], [-74.5, 45.0],
          [-76.5, 44.2], [-78.0, 43.5],
          [-79.04, 43.26], [-79.065, 43.15], [-79.068, 43.08],
          [-79.055, 42.90], [-78.9, 42.85],
          [-82.7, 41.4], [-87.5, 41.6], [-90.0, 47.2], [-95.0, 49.0],
          [-124.7, 48.4]
        ]]
      }
    },
    {
      "type": "Feature",
      "properties": { "iso_a2": "CA", "name": "Canada" },
      "geometry": {
        "type": "Polygon",
        "coordinates": [[
          [-141.0, 60.0], [-141.0, 69.6], [-68.0, 60.0], [-55.0, 53.0],
          [-60.0, 47.0], [-66.0, 44.6], [-71.0, 46.5], [-75.0, 45.5],
          [-78.5, 44.0],
          [-79.10, 43.26], [-79.078, 43.15], [-79.075, 43.08],
          [-79.10, 42.90],
          [-81.0, 42.6], [-82.5, 42.3], [-83.0, 43.5], [-85.0, 46.5],
          [-90.0, 48.2], [-95.0, 49.0], [-141.0, 60.0]
        ]]
      }
    }
  ]
}
